OSCAR 7 (AO-7)          
1 07530U 74089B   26073.59534925 -.00000020  00000+0  16781-3 0  9991
2 07530 101.9966  85.8380 0011942 312.6143 166.4494 12.53696481348664
PHASE 3B (AO-10)        
1 14129U 83058B   26072.70379219  .00000107  00000+0  00000+0 0  9992
2 14129  25.9213 235.5807 6045284  89.2129 335.2286  2.05870209293524
UOSAT 2 (UO-11)         
1 14781U 84021B   26073.50715671  .00001948  00000+0  20500-3 0  9997
2 14781  97.7953  40.2130 0008715 129.5508 230.6481 14.90526062243024
LUSAT (LO-19)           
1 20442U 90005G   26073.57469306  .00000191  00000+0  84767-4 0  9990
2 20442  98.8932  92.7400 0012527 121.2000 239.0414 14.34090352888837
EYESAT A (AO-27)        
1 22825U 93061C   26073.18223763  .00000118  00000+0  61916-4 0  9994
2 22825  98.6972 140.5955 0008737  26.6550 333.5080 14.30914705693419
ITAMSAT (IO-26)         
1 22826U 93061D   26073.39957986  .00000136  00000+0  68226-4 0  9990
2 22826  98.6921 140.7210 0008926   9.6918 350.4436 14.31338983693758
RADIO ROSTO (RS15)      
1 23439U 94085A   26073.48473803 -.00000047  00000+0 -11919-3 0  9998
2 23439  64.8133  96.3771 0152840  21.1292 339.5856 11.27583869285226
JAS-2 (FO-29)           
1 24278U 96046B   26073.60013971  .00000022  00000+0  60160-4 0  9993
2 24278  98.5375 295.3553 0349615 342.0303  16.8727 13.53269068460371
TECHSAT 1B (GO-32)      
1 25397U 98043D   26073.58691896  .00000114  00000+0  69244-4 0  9994
2 25397  99.0030  63.9796 0002177 111.7823 248.3587 14.24407722437867
ISS (ZARYA)             
1 25544U 98067A   26073.41792243  .00009990  00000+0  19399-3 0  9990
2 25544  51.6328  48.9797 0006389 189.6380 170.4486 15.48274195557061
PCSAT (NO-44)           
1 26931U 01043C   26073.58737432  .00000170  00000+0  94420-4 0  9996
2 26931  67.0498 128.9462 0006995 265.0362  94.9941 14.31914913276908
SAUDISAT 1C (SO-50)     
1 27607U 02058C   26073.27104551  .00002083  00000+0  26271-3 0  9993
2 27607  64.5526  62.6028 0075307 279.8659  79.3951 14.82804742250386
CUTE-1 (CO-55)          
1 27844U 03031E   26072.98964531  .00000396  00000+0  19032-3 0  9999
2 27844  98.6777  82.7351 0010745 101.3524 258.8862 14.24270180178127
CUBESAT XI-IV (CO-57)   
1 27848U 03031J   26073.56320221  .00000349  00000+0  17224-3 0  9999
2 27848  98.6807  83.0901 0010521 116.0304 244.1959 14.23565240177915
MOZHAETS 4 (RS22)       
1 27939U 03042A   26073.61578894  .00001549  00000+0  24778-3 0  9994
2 27939  98.3446 255.3138 0010774 203.3329 244.0936 14.73270096201622
CUBESAT XI-V            
1 28895U 05043F   26073.40511845  .00002210  00000+0  35702-3 0  9994
2 28895  98.2838 227.1185 0014964 143.2981 216.9253 14.72342957 87805
