[{"OBJECT_NAME":"OSCAR 7 (AO-7)","OBJECT_ID":"1974-089B","EPOCH":"2026-03-14T14:17:18.175200","MEAN_MOTION":12.53696481,"ECCENTRICITY":0.00119422,"INCLINATION":101.9966,"RA_OF_ASC_NODE":85.838,"ARG_OF_PERICENTER":312.6143,"MEAN_ANOMALY":166.4494,"EPHEMERIS_TYPE":0,"CLASSIFICATION_TYPE":"U","NORAD_CAT_ID":7530,"ELEMENT_SET_NO":999,"REV_AT_EPOCH":34866,"BSTAR":0.00016781481,"MEAN_MOTION_DOT":-2.0e-7,"MEAN_MOTION_DDOT":0},{"OBJECT_NAME":"PHASE 3B (AO-10)","OBJECT_ID":"1983-058B","EPOCH":"2026-03-13T16:53:27.645216","MEAN_MOTION":2.05870209,"ECCENTRICITY":0.60452846,"INCLINATION":25.9213,"RA_OF_ASC_NODE":235.5807,"ARG_OF_PERICENTER":89.2129,"MEAN_ANOMALY":335.2286,"EPHEMERIS_TYPE":0,"CLASSIFICATION_TYPE":"U","NORAD_CAT_ID":14129,"ELEMENT_SET_NO":999,"REV_AT_EPOCH":29352,"BSTAR":0,"MEAN_MOTION_DOT":1.07e-6,"MEAN_MOTION_DDOT":0},{"OBJECT_NAME":"UOSAT 2 (UO-11)","OBJECT_ID":"1984-021B","EPOCH":"2026-03-14T12:10:18.339744","MEAN_MOTION":14.90526062,"ECCENTRICITY":0.00087152,"INCLINATION":97.7953,"RA_OF_ASC_NODE":40.213,"ARG_OF_PERICENTER":129.5508,"MEAN_ANOMALY":230.6481,"EPHEMERIS_TYPE":0,"CLASSIFICATION_TYPE":"U","NORAD_CAT_ID":14781,"ELEMENT_SET_NO":999,"REV_AT_EPOCH":24302,"BSTAR":0.00020500092,"MEAN_MOTION_DOT":1.948e-5,"MEAN_MOTION_DDOT":0},{"OBJECT_NAME":"LUSAT (LO-19)","OBJECT_ID":"1990-005G","EPOCH":"2026-03-14T13:47:33.480384","MEAN_MOTION":14.34090352,"ECCENTRICITY":0.0012527,"INCLINATION":98.8932,"RA_OF_ASC_NODE":92.74,"ARG_OF_PERICENTER":121.2,"MEAN_ANOMALY":239.0414,"EPHEMERIS_TYPE":0,"CLASSIFICATION_TYPE":"U","NORAD_CAT_ID":20442,"ELEMENT_SET_NO":999,"REV_AT_EPOCH":88883,"BSTAR":8.4767363e-5,"MEAN_MOTION_DOT":1.91e-6,"MEAN_MOTION_DDOT":0},{"OBJECT_NAME":"EYESAT A (AO-27)","OBJECT_ID":"1993-061C","EPOCH":"2026-03-14T04:22:25.331232","MEAN_MOTION":14.30914705,"ECCENTRICITY":0.00087376,"INCLINATION":98.6972,"RA_OF_ASC_NODE":140.5955,"ARG_OF_PERICENTER":26.655,"MEAN_ANOMALY":333.508,"EPHEMERIS_TYPE":0,"CLASSIFICATION_TYPE":"U","NORAD_CAT_ID":22825,"ELEMENT_SET_NO":999,"REV_AT_EPOCH":69341,"BSTAR":6.1916074e-5,"MEAN_MOTION_DOT":1.18e-6,"MEAN_MOTION_DDOT":0},{"OBJECT_NAME":"ITAMSAT (IO-26)","OBJECT_ID":"1993-061D","EPOCH":"2026-03-14T09:35:23.699904","MEAN_MOTION":14.31338983,"ECCENTRICITY":0.00089265,"INCLINATION":98.6921,"RA_OF_ASC_NODE":140.721,"ARG_OF_PERICENTER":9.6918,"MEAN_ANOMALY":350.4436,"EPHEMERIS_TYPE":0,"CLASSIFICATION_TYPE":"U","NORAD_CAT_ID":22826,"ELEMENT_SET_NO":999,"REV_AT_EPOCH":69375,"BSTAR":6.8225961e-5,"MEAN_MOTION_DOT":1.36e-6,"MEAN_MOTION_DDOT":0},{"OBJECT_NAME":"RADIO ROSTO (RS15)","OBJECT_ID":"1994-085A","EPOCH":"2026-03-14T11:38:01.365792","MEAN_MOTION":11.27583869,"ECCENTRICITY":0.01528404,"INCLINATION":64.8133,"RA_OF_ASC_NODE":96.3771,"ARG_OF_PERICENTER":21.1292,"MEAN_ANOMALY":339.5856,"EPHEMERIS_TYPE":0,"CLASSIFICATION_TYPE":"U","NORAD_CAT_ID":23439,"ELEMENT_SET_NO":999,"REV_AT_EPOCH":28522,"BSTAR":-0.00011918623,"MEAN_MOTION_DOT":-4.7e-7,"MEAN_MOTION_DDOT":0},{"OBJECT_NAME":"JAS-2 (FO-29)","OBJECT_ID":"1996-046B","EPOCH":"2026-03-14T14:24:12.070944","MEAN_MOTION":13.53269068,"ECCENTRICITY":0.03496157,"INCLINATION":98.5375,"RA_OF_ASC_NODE":295.3553,"ARG_OF_PERICENTER":342.0303,"MEAN_ANOMALY":16.8727,"EPHEMERIS_TYPE":0,"CLASSIFICATION_TYPE":"U","NORAD_CAT_ID":24278,"ELEMENT_SET_NO":999,"REV_AT_EPOCH":46037,"BSTAR":6.0160473e-5,"MEAN_MOTION_DOT":2.2e-7,"MEAN_MOTION_DDOT":0},{"OBJECT_NAME":"TECHSAT 1B (GO-32)","OBJECT_ID":"1998-043D","EPOCH":"2026-03-14T14:05:09.798144","MEAN_MOTION":14.24407722,"ECCENTRICITY":0.00021777,"INCLINATION":99.003,"RA_OF_ASC_NODE":63.9796,"ARG_OF_PERICENTER":111.7823,"MEAN_ANOMALY":248.3587,"EPHEMERIS_TYPE":0,"CLASSIFICATION_TYPE":"U","NORAD_CAT_ID":25397,"ELEMENT_SET_NO":999,"REV_AT_EPOCH":43786,"BSTAR":6.9243681e-5,"MEAN_MOTION_DOT":1.14e-6,"MEAN_MOTION_DDOT":0},{"OBJECT_NAME":"ISS (ZARYA)","OBJECT_ID":"1998-067A","EPOCH":"2026-03-14T10:01:48.497952","MEAN_MOTION":15.48274195,"ECCENTRICITY":0.00063896,"INCLINATION":51.6328,"RA_OF_ASC_NODE":48.9797,"ARG_OF_PERICENTER":189.638,"MEAN_ANOMALY":170.4486,"EPHEMERIS_TYPE":0,"CLASSIFICATION_TYPE":"U","NORAD_CAT_ID":25544,"ELEMENT_SET_NO":999,"REV_AT_EPOCH":55706,"BSTAR":0.00019399232,"MEAN_MOTION_DOT":9.99e-5,"MEAN_MOTION_DDOT":0},{"OBJECT_NAME":"PCSAT (NO-44)","OBJECT_ID":"2001-043C","EPOCH":"2026-03-14T14:05:49.141248","MEAN_MOTION":14.31914913,"ECCENTRICITY":0.00069951,"INCLINATION":67.0498,"RA_OF_ASC_NODE":128.9462,"ARG_OF_PERICENTER":265.0362,"MEAN_ANOMALY":94.9941,"EPHEMERIS_TYPE":0,"CLASSIFICATION_TYPE":"U","NORAD_CAT_ID":26931,"ELEMENT_SET_NO":999,"REV_AT_EPOCH":27690,"BSTAR":9.4420142e-5,"MEAN_MOTION_DOT":1.7e-6,"MEAN_MOTION_DDOT":0},{"OBJECT_NAME":"SAUDISAT 1C (SO-50)","OBJECT_ID":"2002-058C","EPOCH":"2026-03-14T06:30:18.332064","MEAN_MOTION":14.82804742,"ECCENTRICITY":0.00753077,"INCLINATION":64.5526,"RA_OF_ASC_NODE":62.6028,"ARG_OF_PERICENTER":279.8659,"MEAN_ANOMALY":79.3951,"EPHEMERIS_TYPE":0,"CLASSIFICATION_TYPE":"U","NORAD_CAT_ID":27607,"ELEMENT_SET_NO":999,"REV_AT_EPOCH":25038,"BSTAR":0.00026270512,"MEAN_MOTION_DOT":2.083e-5,"MEAN_MOTION_DDOT":0},{"OBJECT_NAME":"CUTE-1 (CO-55)","OBJECT_ID":"2003-031E","EPOCH":"2026-03-13T23:45:05.354784","MEAN_MOTION":14.2427018,"ECCENTRICITY":0.00107453,"INCLINATION":98.6777,"RA_OF_ASC_NODE":82.7351,"ARG_OF_PERICENTER":101.3524,"MEAN_ANOMALY":258.8862,"EPHEMERIS_TYPE":0,"CLASSIFICATION_TYPE":"U","NORAD_CAT_ID":27844,"ELEMENT_SET_NO":999,"REV_AT_EPOCH":17812,"BSTAR":0.00019032227,"MEAN_MOTION_DOT":3.96e-6,"MEAN_MOTION_DDOT":0},{"OBJECT_NAME":"CUBESAT XI-IV (CO-57)","OBJECT_ID":"2003-031J","EPOCH":"2026-03-14T13:31:00.670944","MEAN_MOTION":14.2356524,"ECCENTRICITY":0.00105214,"INCLINATION":98.6807,"RA_OF_ASC_NODE":83.0901,"ARG_OF_PERICENTER":116.0304,"MEAN_ANOMALY":244.1959,"EPHEMERIS_TYPE":0,"CLASSIFICATION_TYPE":"U","NORAD_CAT_ID":27848,"ELEMENT_SET_NO":999,"REV_AT_EPOCH":17791,"BSTAR":0.00017224166,"MEAN_MOTION_DOT":3.49e-6,"MEAN_MOTION_DDOT":0},{"OBJECT_NAME":"MOZHAETS 4 (RS22)","OBJECT_ID":"2003-042A","EPOCH":"2026-03-14T14:46:44.164416","MEAN_MOTION":14.73270096,"ECCENTRICITY":0.00107743,"INCLINATION":98.3446,"RA_OF_ASC_NODE":255.3138,"ARG_OF_PERICENTER":203.3329,"MEAN_ANOMALY":244.0936,"EPHEMERIS_TYPE":0,"CLASSIFICATION_TYPE":"U","NORAD_CAT_ID":27939,"ELEMENT_SET_NO":999,"REV_AT_EPOCH":20162,"BSTAR":0.00024777546,"MEAN_MOTION_DOT":1.549e-5,"MEAN_MOTION_DDOT":0},{"OBJECT_NAME":"CUBESAT XI-V","OBJECT_ID":"2005-043F","EPOCH":"2026-03-14T09:43:22.234080","MEAN_MOTION":14.72342957,"ECCENTRICITY":0.00149649,"INCLINATION":98.2838,"RA_OF_ASC_NODE":227.1185,"ARG_OF_PERICENTER":143.2981,"MEAN_ANOMALY":216.9253,"EPHEMERIS_TYPE":0,"CLASSIFICATION_TYPE":"U","NORAD_CAT_ID":28895,"ELEMENT_SET_NO":999,"REV_AT_EPOCH":8780,"BSTAR":0.00035702443,"MEAN_MOTION_DOT":2.21e-5,"MEAN_MOTION_DDOT":0}]
